NORAD_CAT_ID,OBJECT_NAME,OBJECT_TYPE,EPOCH,MEAN_MOTION,ECCENTRICITY,INCLINATION,RA_OF_ASC_NODE,ARG_OF_PERICENTER,MEAN_ANOMALY,BSTAR,MEAN_MOTION_DOT,MEAN_MOTION_DDOT,TLE_LINE0,TLE_LINE1,TLE_LINE2,SEMIMAJOR_AXIS,PERIOD,APOGEE,PERIGEE,DECAYED
56774.0,STARLINK-6190,PAYLOAD,2023-11-13 03:10:42,14.98333803,0.0002707,70.0013,341.3562,274.7242,85.3608,7.2222e-06,-7e-08,0.0,0 STARLINK-6190,1 56774U 23078H   23317.13243408 -.00000007  00000-0  72222-5 0  9998,2 56774  70.0013 341.3562 0002707 274.7242  85.3608 14.98333803 25492,6950.181,96.107,573.928,570.165,0.0
56774.0,STARLINK-6190,PAYLOAD,2023-11-13 11:11:22,14.98333643,0.0002444,69.9999,340.5132,270.4556,89.6323,3.571e-05,3.33e-06,0.0,0 STARLINK-6190,1 56774U 23078H   23317.46623217  .00000333  00000-0  35710-4 0  9995,2 56774  69.9999 340.5132 0002444 270.4556  89.6323 14.98333643 25285,6950.182,96.107,573.745,570.348,0.0
56774.0,STARLINK-6190,PAYLOAD,2023-11-13 19:12:03,14.98326202,0.0002453,70.001,339.6712,272.4516,87.6362,6.3202e-05,6.61e-06,0.0,0 STARLINK-6190,1 56774U 23078H   23317.80003592  .00000661  00000-0  63202-4 0  9992,2 56774  70.0010 339.6712 0002453 272.4516  87.6362 14.98326202 25333,6950.205,96.107,573.775,570.365,0.0
56774.0,STARLINK-6190,PAYLOAD,2023-11-14 03:12:43,14.98329114,0.0002687,70.0005,338.8285,275.2429,84.8424,-4.4429e-05,-6.23e-06,0.0,0 STARLINK-6190,1 56774U 23078H   23318.13383583 -.00000623  00000-0 -44429-4 0  9990,2 56774  70.0005 338.8285 0002687 275.2429  84.8424 14.98329114 25643,6950.196,96.107,573.928,570.193,0.0
56774.0,STARLINK-6190,PAYLOAD,2023-11-14 11:13:23,14.98334524,0.0002886,69.9996,337.9879,278.1571,81.9261,-0.00014782,-1.856e-05,0.0,0 STARLINK-6190,1 56774U 23078H   23318.46763509 -.00001856  00000-0 -14782-3 0  9993,2 56774  69.9996 337.9879 0002886 278.1571  81.9261 14.98334524 25434,6950.179,96.107,574.05,570.038,0.0
56774.0,STARLINK-6190,PAYLOAD,2023-11-14 19:14:04,14.98328845,0.000272,69.9995,337.1463,273.263,86.8218,-3.986e-05,-5.69e-06,0.0,0 STARLINK-6190,1 56774U 23078H   23318.80143616 -.00000569  00000-0 -39860-4 0  9997,2 56774  69.9995 337.1463 0002720 273.2630  86.8218 14.98328845 25483,6950.196,96.107,573.952,570.171,0.0
56774.0,STARLINK-6190,PAYLOAD,2023-11-15 03:14:44,14.98330446,0.0002851,69.9995,336.3042,272.666,87.4173,-1.5075e-06,-1.11e-06,0.0,0 STARLINK-6190,1 56774U 23078H   23319.13523327 -.00000111  00000-0 -15075-5 0  9991,2 56774  69.9995 336.3042 0002851 272.6660  87.4173 14.98330446 25799,6950.192,96.107,574.038,570.075,0.0
56774.0,STARLINK-6190,PAYLOAD,2023-11-15 11:15:24,14.98330062,0.0002632,69.9994,335.4623,268.9016,91.1841,3.6755e-05,3.46e-06,0.0,0 STARLINK-6190,1 56774U 23078H   23319.46903237  .00000346  00000-0  36755-4 0  9994,2 56774  69.9994 335.4623 0002632 268.9016  91.1841 14.98330062 25588,6950.193,96.107,573.887,570.228,0.0
56774.0,STARLINK-6190,PAYLOAD,2023-11-16 03:16:45,14.98327311,0.0002842,69.999,333.7793,272.3203,87.763,4.7576e-05,4.75e-06,0.0,0 STARLINK-6190,1 56774U 23078H   23320.13663324  .00000475  00000-0  47576-4 0  9996,2 56774  69.9990 333.7793 0002842 272.3203  87.7630 14.98327311 25943,6950.201,96.107,574.041,570.091,0.0
56774.0,STARLINK-6190,PAYLOAD,2023-11-16 09:41:17,14.98325591,0.0002403,70.0001,333.1072,262.6949,97.3937,2.3945e-05,1.93e-06,0.0,0 STARLINK-6190,1 56774U 23078H   23320.40367545  .00000193  00000-0  23945-4 0  9993,2 56774  70.0001 333.1072 0002403 262.6949  97.3937 14.98325591 25726,6950.207,96.107,573.742,570.401,0.0
56774.0,STARLINK-6190,PAYLOAD,2023-11-16 17:41:57,14.9833295,0.0002332,70.0005,332.2655,267.5053,92.5839,-0.00012229,-1.552e-05,0.0,0 STARLINK-6190,1 56774U 23078H   23320.73747522 -.00001552  00000-0 -12229-3 0  9990,2 56774  70.0005 332.2655 0002332 267.5053  92.5839 14.98332950 25778,6950.184,96.107,573.67,570.428,0.0
56774.0,STARLINK-6190,PAYLOAD,2023-11-17 09:43:18,14.98324714,0.0002378,70.0001,330.5819,269.8329,90.2557,-3.2175e-05,-4.77e-06,0.0,0 STARLINK-6190,1 56774U 23078H   23321.40507887 -.00000477  00000-0 -32175-4 0  9991,2 56774  70.0001 330.5819 0002378 269.8329  90.2557 14.98324714 26130,6950.209,96.107,573.727,570.421,0.0
56774.0,STARLINK-6190,PAYLOAD,2023-11-18 03:20:46,14.98337586,0.000232,70.0001,328.7313,259.8018,100.2879,-0.0001051,-1.347e-05,0.0,0 STARLINK-6190,1 56774U 23078H   23322.13943173 -.00001347  00000-0 -10510-3 0  9999,2 56774  70.0001 328.7313 0002320 259.8018 100.2879 14.98337586 26241,6950.169,96.107,573.647,570.422,0.0
56774.0,STARLINK-6190,PAYLOAD,2023-11-18 09:45:19,14.98326845,0.0002308,70.0002,328.0554,260.6521,99.4377,-2.0694e-05,-3.4e-06,0.0,0 STARLINK-6190,1 56774U 23078H   23322.40647558 -.00000340  00000-0 -20694-4 0  9994,2 56774  70.0002 328.0554 0002308 260.6521  99.4377 14.98326845 26289,6950.203,96.107,573.672,570.464,0.0
56774.0,STARLINK-6190,PAYLOAD,2023-11-18 17:45:59,14.98328026,0.0002124,70.0007,327.2132,275.822,84.2697,1.5981e-05,9.8e-07,0.0,0 STARLINK-6190,1 56774U 23078H   23322.74027575  .00000098  00000-0  15981-4 0  9993,2 56774  70.0007 327.2132 0002124 275.8220  84.2697 14.98328026 26074,6950.199,96.107,573.54,570.588,0.0
56774.0,STARLINK-6190,PAYLOAD,2023-11-19 09:47:20,14.98324258,0.0002065,70.0006,325.5301,282.4149,77.6779,1.7411e-05,1.15e-06,0.0,0 STARLINK-6190,1 56774U 23078H   23323.40787815  .00000115  00000-0  17411-4 0  9997,2 56774  70.0006 325.5301 0002065 282.4149  77.6779 14.98324258 26430,6950.211,96.107,573.511,570.64,0.0
56774.0,STARLINK-6190,PAYLOAD,2023-11-19 17:48:00,14.98330158,0.0002949,69.9995,324.6879,272.5193,87.5628,3.1691e-05,2.85e-06,0.0,0 STARLINK-6190,1 56774U 23078H   23323.74167153  .00000285  00000-0  31691-4 0  9995,2 56774  69.9995 324.6879 0002949 272.5193  87.5628 14.98330158 26488,6950.192,96.107,574.107,570.008,0.0
56774.0,STARLINK-6190,PAYLOAD,2023-11-20 03:24:48,14.98330799,0.0002287,69.9996,323.6783,236.1632,123.9309,6.281e-05,6.57e-06,0.0,0 STARLINK-6190,1 56774U 23078H   23324.14222805  .00000657  00000-0  62810-4 0  9996,2 56774  69.9996 323.6783 0002287 236.1632 123.9309 14.98330799 26540,6950.19,96.107,573.645,570.466,0.0
56774.0,STARLINK-6190,PAYLOAD,2023-11-20 09:49:20,14.98330523,0.0002512,69.9998,323.0052,261.5052,98.5822,6.6532e-05,7.01e-06,0.0,0 STARLINK-6190,1 56774U 23078H   23324.40926855  .00000701  00000-0  66532-4 0  9996,2 56774  69.9998 323.0052 0002512 261.5052  98.5822 14.98330523 26322,6950.191,96.107,573.802,570.31,0.0
56774.0,STARLINK-6190,PAYLOAD,2023-11-20 17:50:01,14.98312053,0.000252,69.9999,322.1638,280.2093,79.8782,0.0003194,3.718e-05,0.0,0 STARLINK-6190,1 56774U 23078H   23324.74307600  .00003718  00000-0  31940-3 0  9999,2 56774  69.9999 322.1638 0002520 280.2093  79.8782 14.98312053 26634,6950.248,96.108,573.865,570.362,0.0
56774.0,STARLINK-6190,PAYLOAD,2023-11-21 03:26:50,14.98322718,0.0002482,70.0002,321.1539,257.4365,102.6516,-7.8665e-05,-1.031e-05,0.0,0 STARLINK-6190,1 56774U 23078H   23325.14363596 -.00001031  00000-0 -78665-4 0  9994,2 56774  70.0002 321.1539 0002482 257.4365 102.6516 14.98322718 26691,6950.215,96.107,573.805,570.355,0.0
56774.0,STARLINK-6190,PAYLOAD,2023-11-21 09:51:21,14.9832843,0.0002949,70.0009,320.481,261.0603,99.0222,-3.2483e-05,-4.81e-06,0.0,0 STARLINK-6190,1 56774U 23078H   23325.41067021 -.00000481  00000-0 -32483-4 0  9994,2 56774  70.0009 320.4810 0002949 261.0603  99.0222 14.98328430 26472,6950.198,96.107,574.112,570.013,0.0
56774.0,STARLINK-6190,PAYLOAD,2023-11-22 09:53:22,14.9832138,0.0002522,69.9997,317.9553,270.0476,90.0394,0.00019193,2.197e-05,0.0,0 STARLINK-6190,1 56774U 23078H   23326.41206989  .00002197  00000-0  19193-3 0  9999,2 56774  69.9997 317.9553 0002522 270.0476  90.0394 14.98321380 26888,6950.22,96.108,573.837,570.332,0.0
56774.0,STARLINK-6190,PAYLOAD,2023-11-23 03:30:51,14.98330741,0.0002773,69.9994,316.1039,270.3342,89.7499,4.3109e-05,4.21e-06,0.0,0 STARLINK-6190,1 56774U 23078H   23327.14642582  .00000421  00000-0  43109-4 0  9996,2 56774  69.9994 316.1039 0002773 270.3342  89.7499 14.98330741 26992,6950.191,96.107,573.983,570.128,0.0
56774.0,STARLINK-6190,PAYLOAD,2023-11-23 09:55:23,14.98330557,0.0002542,70.0002,315.4311,260.635,99.4522,5.6052e-05,5.76e-06,0.0,0 STARLINK-6190,1 56774U 23078H   23327.41346490  .00000576  00000-0  56052-4 0  9997,2 56774  70.0002 315.4311 0002542 260.6350  99.4522 14.98330557 26771,6950.191,96.107,573.823,570.289,0.0
56774.0,STARLINK-6190,PAYLOAD,2023-11-24 03:32:52,14.98324596,0.0002325,69.9997,313.5788,252.6352,107.4553,-3.3779e-05,-4.96e-06,0.0,0 STARLINK-6190,1 56774U 23078H   23328.14783127 -.00000496  00000-0 -33779-4 0  9994,2 56774  69.9997 313.5788 0002325 252.6352 107.4553 14.98324596 27142,6950.21,96.107,573.691,570.459,0.0
56774.0,STARLINK-6190,PAYLOAD,2023-11-24 09:57:25,14.98322345,0.0002374,69.9998,312.9058,254.8535,105.2362,-6.2936e-05,-8.44e-06,0.0,0 STARLINK-6190,1 56774U 23078H   23328.41487467 -.00000844  00000-0 -62936-4 0  9996,2 56774  69.9998 312.9058 0002374 254.8535 105.2362 14.98322345 26926,6950.217,96.107,573.732,570.432,0.0
56774.0,STARLINK-6190,PAYLOAD,2023-11-25 03:34:53,14.98329114,0.0002672,69.9992,311.055,253.807,106.2795,-1.7981e-05,-3.07e-06,0.0,0 STARLINK-6190,1 56774U 23078H   23329.14922951 -.00000307  00000-0 -17981-4 0  9993,2 56774  69.9992 311.0550 0002672 253.8070 106.2795 14.98329114 27294,6950.196,96.107,573.918,570.204,0.0
56774.0,STARLINK-6190,PAYLOAD,2023-11-25 08:23:17,14.98328004,0.00022,70.0004,310.5497,264.3619,95.7289,1.2086e-05,5.1e-07,0.0,0 STARLINK-6190,1 56774U 23078H   23329.34950993  .00000051  00000-0  12086-4 0  9997,2 56774  70.0004 310.5497 0002200 264.3619  95.7289 14.98328004 27060,6950.199,96.107,573.593,570.535,0.0
56774.0,STARLINK-6190,PAYLOAD,2023-11-26 03:36:53,14.98337317,0.000268,69.9994,308.5303,253.8323,106.2541,0.00017954,2.05e-05,0.0,0 STARLINK-6190,1 56774U 23078H   23330.15061815  .00002050  00000-0  17954-3 0  9993,2 56774  69.9994 308.5303 0002680 253.8323 106.2541 14.98337317 27443,6950.17,96.107,573.898,570.173,0.0
